{
    "links": {
        "self": "http://www.neowsapp.com/rest/v1/neo/3824083?api_key=iIulBulltgU6a56xZRHN4H3l9WmuAYTsLGpBGhQ2"
    },
    "id": "3824083",
    "neo_reference_id": "3824083",
    "name": "(2018 JC2)",
    "designation": "2018 JC2",
    "nasa_jpl_url": "http://ssd.jpl.nasa.gov/sbdb.cgi?sstr=3824083",
    "absolute_magnitude_h": 22.8,
    "estimated_diameter": {
        "kilometers": {
            "estimated_diameter_min": 0.0732073989,
            "estimated_diameter_max": 0.1636967205
        },
        "meters": {
            "estimated_diameter_min": 73.2073989347,
            "estimated_diameter_max": 163.696720474
        },
        "miles": {
            "estimated_diameter_min": 0.0454889547,
            "estimated_diameter_max": 0.1017163949
        },
        "feet": {
            "estimated_diameter_min": 240.181762721,
            "estimated_diameter_max": 537.0627483999
        }
    },
    "is_potentially_hazardous_asteroid": false,
    "close_approach_data": [
        {
            "close_approach_date": "1962-04-15",
            "close_approach_date_full": "1962-Apr-15 12:16",
            "epoch_date_close_approach": -243431040000,
            "relative_velocity": {
                "kilometers_per_second": "17.2065329289",
                "kilometers_per_hour": "61943.5185439529",
                "miles_per_hour": "38489.2935086023"
            },
            "miss_distance": {
                "astronomical": "0.3289772389",
                "lunar": "127.9721459321",
                "kilometers": "49214294.217921143",
                "miles": "30580344.3976040534"
            },
            "orbiting_body": "Earth"
        },
        {
            "close_approach_date": "2018-04-17",
            "close_approach_date_full": "2018-Apr-17 22:28",
            "epoch_date_close_approach": 1524004080000,
            "relative_velocity": {
                "kilometers_per_second": "14.2594055364",
                "kilometers_per_hour": "51333.8599309759",
                "miles_per_hour": "31896.8642443333"
            },
            "miss_distance": {
                "astronomical": "0.1149014187",
                "lunar": "44.6966518743",
                "kilometers": "17189007.497498169",
                "miles": "10680753.9858019722"
            },
            "orbiting_body": "Earth"
        }
    ],
    "orbital_data": {
        "orbit_id": "14",
        "orbit_determination_date": "2020-09-09 06:28:59",
        "first_observation_date": "2018-05-09",
        "last_observation_date": "2018-05-24",
        "data_arc_in_days": 15,
        "observations_used": 90,
        "orbit_uncertainty": "8",
        "minimum_orbit_intersection": ".0254631",
        "jupiter_tisserand_invariant": "2.962",
        "epoch_osculation": "2458257.5",
        "eccentricity": ".6658094407458121",
        "semi_major_axis": "2.773870114913502",
        "inclination": "4.733912994765802",
        "ascending_node_longitude": "148.5849469937721",
        "orbital_period": "1687.437162086133",
        "perihelion_distance": ".9270012050014218",
        "perihelion_argument": "12.32886870981198",
        "aphelion_distance": "4.620739024825582",
        "perihelion_time": "2458194.865080407217",
        "mean_anomaly": "13.36261376721471",
        "mean_motion": ".2133412775827111",
        "equinox": "J2000",
        "orbit_class": {
            "orbit_class_type": "APO",
            "orbit_class_description": "Near-Earth asteroid orbits which cross the Earth’s orbit similar to that of 1862 Apollo",
            "orbit_class_range": "a (semi-major axis) > 1.0 AU; q (perihelion) < 1.017 AU"
        }
    },
    "is_sentry_object": false
}